*******************************************************************************
Ephemeris / WWW_USER Fri Mar  7 09:59:25 2025 Pasadena, USA      / Horizons    
*******************************************************************************
Target body name: 358P/PANSTARRS                  {source: JPL#33}
Center body name: Earth (399)                     {source: DE441}
Center-site name: Mauna Kea
*******************************************************************************
Start time      : A.D. 2018-Sep-14 04:35:00.0000 UT      
Stop  time      : A.D. 2018-Sep-14 16:00:00.0000 UT      
Step-size       : 1 minutes
*******************************************************************************
Target pole/equ : undefined
Target radii    : undefined                                                    
Center geodetic : 204.5278, 19.8260847, 4.21024   {E-lon(deg),Lat(deg),Alt(km)}
Center cylindric: 204.5278, 6006.35451, 2151.0229 {E-lon(deg),Dxy(km),Dz(km)}
Center pole/equ : ITRF93                          {East-longitude positive}
Center radii    : 6378.137, 6378.137, 6356.752 km {Equator_a, b, pole_c}       
Target primary  : Sun
Vis. interferer : MOON (R_eq= 1737.400) km        {source: DE441}
Rel. light bend : Sun                             {source: DE441}
Rel. lght bnd GM: 1.3271E+11 km^3/s^2                                          
Small-body perts: Yes                             {source: SB441-N16}
Atmos refraction: NO (AIRLESS)
RA format       : HMS
Time format     : CAL 
Calendar mode   : Mixed Julian/Gregorian
RTS-only print  : NO       
EOP file        : eop.250306.p250602                                           
EOP coverage    : DATA-BASED 1962-JAN-20 TO 2025-MAR-06. PREDICTS-> 2025-JUN-01
Units conversion: 1 au= 149597870.700 km, c= 299792.458 km/s, 1 day= 86400.0 s 
Table cut-offs 1: Elevation (-90.0deg=NO ),Airmass (>38.000=NO), Daylight (YES)
Table cut-offs 2: Solar elongation (  0.0,180.0=NO ),Local Hour Angle( 0.0=NO )
Table cut-offs 3: RA/DEC angular rate (     0.0=NO )                           
*******************************************************************************
Initial IAU76/J2000 heliocentric ecliptic osculating elements (au, days, deg.):
  EPOCH=  2459793.5 ! 2022-Aug-02.0000000 (TDB)    RMSW= n.a.                  
   EC= .2388922136090974   QR= 2.394903345037887   TP= 2460259.6862889272      
   OM= 85.70246509974154   W= 299.7728624007243    IN= 11.06025031481611       
  Equivalent ICRF heliocentric cartesian coordinates (au, au/d):
   X= 3.243054425204740E-01  Y=-2.897679241187805E+00  Z=-1.376383147061824E+00
  VX= 8.746409534656921E-03 VY= 3.598394346577952E-03 VZ=-2.469697424538527E-04
Comet physical (GM= km^3/s^2; RAD= km):                                        
   GM= n.a.                RAD= n.a.                                           
   M1=  7.8      M2=  17.2     k1=  30.    k2=  5.      PHCOF=  .030           
Comet non-gravitational force model (AMRAT=m^2/kg;A1-A3=au/d^2;DT=days;R0=au): 
   AMRAT=  0.                                      DT=  0.                     
   A1= 0.                  A2= -2.303385920823E-10 A3= 0.                      
 Standard model:                                                               
   ALN=  .1112620426   NK=  4.6142   NM=  2.15     NN=  5.093    R0=  2.808    
*******************************************************************************
 Date__(UT)__HR:MN     R.A._________(ICRF)_________DEC
******************************************************
$$SOE
 2018-Sep-14 06:32  m  06 12 17.298984 +20 23 21.67070
 2018-Sep-14 06:33  m  06 12 17.352484 +20 23 21.74125
 2018-Sep-14 06:34  m  06 12 17.405982 +20 23 21.81182
 2018-Sep-14 06:35  m  06 12 17.459477 +20 23 21.88241
 2018-Sep-14 06:36  m  06 12 17.512971 +20 23 21.95302
 2018-Sep-14 06:37  m  06 12 17.566462 +20 23 22.02365
 2018-Sep-14 06:38  m  06 12 17.619951 +20 23 22.09429
 2018-Sep-14 06:39  m  06 12 17.673438 +20 23 22.16496
 2018-Sep-14 06:40  m  06 12 17.726923 +20 23 22.23565
 2018-Sep-14 06:41  m  06 12 17.780405 +20 23 22.30635
 2018-Sep-14 06:42  m  06 12 17.833885 +20 23 22.37708
 2018-Sep-14 06:43  m  06 12 17.887363 +20 23 22.44782
 2018-Sep-14 06:44  m  06 12 17.940839 +20 23 22.51859
 2018-Sep-14 06:45  m  06 12 17.994312 +20 23 22.58937
 2018-Sep-14 06:46  m  06 12 18.047783 +20 23 22.66017
 2018-Sep-14 06:47  m  06 12 18.101251 +20 23 22.73099
 2018-Sep-14 06:48  m  06 12 18.154717 +20 23 22.80183
 2018-Sep-14 06:49  m  06 12 18.208181 +20 23 22.87269
 2018-Sep-14 06:50  m  06 12 18.261642 +20 23 22.94356
 2018-Sep-14 06:51  m  06 12 18.315101 +20 23 23.01446
 2018-Sep-14 06:52  m  06 12 18.368558 +20 23 23.08537
 2018-Sep-14 06:53  m  06 12 18.422012 +20 23 23.15631
 2018-Sep-14 06:54  m  06 12 18.475463 +20 23 23.22726
 2018-Sep-14 06:55  m  06 12 18.528912 +20 23 23.29823
 2018-Sep-14 06:56  m  06 12 18.582359 +20 23 23.36922
 2018-Sep-14 06:57  m  06 12 18.635803 +20 23 23.44023
 2018-Sep-14 06:58  m  06 12 18.689245 +20 23 23.51125
 2018-Sep-14 06:59  m  06 12 18.742683 +20 23 23.58230
 2018-Sep-14 07:00  m  06 12 18.796120 +20 23 23.65336
 2018-Sep-14 07:01  m  06 12 18.849554 +20 23 23.72444
 2018-Sep-14 07:02  m  06 12 18.902985 +20 23 23.79554
 2018-Sep-14 07:03  m  06 12 18.956413 +20 23 23.86666
 2018-Sep-14 07:04  m  06 12 19.009839 +20 23 23.93780
 2018-Sep-14 07:05  m  06 12 19.063262 +20 23 24.00895
 2018-Sep-14 07:06  m  06 12 19.116683 +20 23 24.08012
 2018-Sep-14 07:07  m  06 12 19.170101 +20 23 24.15131
 2018-Sep-14 07:08  m  06 12 19.223516 +20 23 24.22252
 2018-Sep-14 07:09  m  06 12 19.276928 +20 23 24.29375
 2018-Sep-14 07:10  m  06 12 19.330338 +20 23 24.36499
 2018-Sep-14 07:11  m  06 12 19.383745 +20 23 24.43625
 2018-Sep-14 07:12  m  06 12 19.437149 +20 23 24.50754
 2018-Sep-14 07:13  m  06 12 19.490550 +20 23 24.57883
 2018-Sep-14 07:14  m  06 12 19.543949 +20 23 24.65015
 2018-Sep-14 07:15  m  06 12 19.597345 +20 23 24.72148
 2018-Sep-14 07:16  m  06 12 19.650737 +20 23 24.79283
 2018-Sep-14 07:17  m  06 12 19.704127 +20 23 24.86420
 2018-Sep-14 07:18  m  06 12 19.757514 +20 23 24.93559
 2018-Sep-14 07:19  m  06 12 19.810899 +20 23 25.00699
 2018-Sep-14 07:20  m  06 12 19.864280 +20 23 25.07841
 2018-Sep-14 07:21  m  06 12 19.917658 +20 23 25.14985
 2018-Sep-14 07:22  m  06 12 19.971034 +20 23 25.22131
 2018-Sep-14 07:23  m  06 12 20.024406 +20 23 25.29278
 2018-Sep-14 07:24  m  06 12 20.077776 +20 23 25.36427
 2018-Sep-14 07:25  m  06 12 20.131143 +20 23 25.43578
 2018-Sep-14 07:26  m  06 12 20.184506 +20 23 25.50730
 2018-Sep-14 07:27  m  06 12 20.237867 +20 23 25.57884
 2018-Sep-14 07:28  m  06 12 20.291224 +20 23 25.65040
 2018-Sep-14 07:29  m  06 12 20.344579 +20 23 25.72198
 2018-Sep-14 07:30  m  06 12 20.397930 +20 23 25.79357
 2018-Sep-14 07:31  m  06 12 20.451278 +20 23 25.86518
 2018-Sep-14 07:32  m  06 12 20.504624 +20 23 25.93680
 2018-Sep-14 07:33  m  06 12 20.557966 +20 23 26.00844
 2018-Sep-14 07:34  m  06 12 20.611305 +20 23 26.08010
 2018-Sep-14 07:35  m  06 12 20.664641 +20 23 26.15178
 2018-Sep-14 07:36  m  06 12 20.717973 +20 23 26.22347
 2018-Sep-14 07:37  m  06 12 20.771303 +20 23 26.29518
 2018-Sep-14 07:38  m  06 12 20.824629 +20 23 26.36690
 2018-Sep-14 07:39  m  06 12 20.877952 +20 23 26.43865
 2018-Sep-14 07:40  m  06 12 20.931272 +20 23 26.51040
 2018-Sep-14 07:41  m  06 12 20.984589 +20 23 26.58218
 2018-Sep-14 07:42  m  06 12 21.037902 +20 23 26.65397
 2018-Sep-14 07:43  m  06 12 21.091212 +20 23 26.72577
 2018-Sep-14 07:44  m  06 12 21.144519 +20 23 26.79759
 2018-Sep-14 07:45  m  06 12 21.197823 +20 23 26.86943
 2018-Sep-14 07:46  m  06 12 21.251123 +20 23 26.94129
 2018-Sep-14 07:47  m  06 12 21.304420 +20 23 27.01316
 2018-Sep-14 07:48  m  06 12 21.357714 +20 23 27.08504
 2018-Sep-14 07:49  m  06 12 21.411004 +20 23 27.15694
 2018-Sep-14 07:50  m  06 12 21.464291 +20 23 27.22886
 2018-Sep-14 07:51  m  06 12 21.517575 +20 23 27.30079
 2018-Sep-14 07:52  m  06 12 21.570855 +20 23 27.37274
 2018-Sep-14 07:53  m  06 12 21.624132 +20 23 27.44470
 2018-Sep-14 07:54  m  06 12 21.677405 +20 23 27.51668
 2018-Sep-14 07:55  m  06 12 21.730675 +20 23 27.58868
 2018-Sep-14 07:56  m  06 12 21.783941 +20 23 27.66069
 2018-Sep-14 07:57  m  06 12 21.837204 +20 23 27.73271
 2018-Sep-14 07:58     06 12 21.890464 +20 23 27.80475
 2018-Sep-14 07:59     06 12 21.943720 +20 23 27.87681
 2018-Sep-14 08:00     06 12 21.996972 +20 23 27.94888
 2018-Sep-14 08:01     06 12 22.050221 +20 23 28.02096
 2018-Sep-14 08:02     06 12 22.103467 +20 23 28.09306
 2018-Sep-14 08:03     06 12 22.156709 +20 23 28.16518
 2018-Sep-14 08:04     06 12 22.209947 +20 23 28.23731
 2018-Sep-14 08:05     06 12 22.263182 +20 23 28.30945
 2018-Sep-14 08:06     06 12 22.316413 +20 23 28.38161
 2018-Sep-14 08:07     06 12 22.369640 +20 23 28.45378
 2018-Sep-14 08:08     06 12 22.422864 +20 23 28.52597
 2018-Sep-14 08:09     06 12 22.476085 +20 23 28.59817
 2018-Sep-14 08:10     06 12 22.529301 +20 23 28.67039
 2018-Sep-14 08:11     06 12 22.582514 +20 23 28.74262
 2018-Sep-14 08:12     06 12 22.635724 +20 23 28.81486
 2018-Sep-14 08:13     06 12 22.688930 +20 23 28.88712
 2018-Sep-14 08:14     06 12 22.742132 +20 23 28.95940
 2018-Sep-14 08:15     06 12 22.795330 +20 23 29.03168
 2018-Sep-14 08:16     06 12 22.848524 +20 23 29.10399
 2018-Sep-14 08:17     06 12 22.901715 +20 23 29.17630
 2018-Sep-14 08:18     06 12 22.954902 +20 23 29.24863
 2018-Sep-14 08:19     06 12 23.008086 +20 23 29.32097
 2018-Sep-14 08:20     06 12 23.061265 +20 23 29.39333
 2018-Sep-14 08:21     06 12 23.114441 +20 23 29.46570
 2018-Sep-14 08:22     06 12 23.167613 +20 23 29.53808
 2018-Sep-14 08:23     06 12 23.220781 +20 23 29.61048
 2018-Sep-14 08:24     06 12 23.273945 +20 23 29.68289
 2018-Sep-14 08:25     06 12 23.327106 +20 23 29.75531
 2018-Sep-14 08:26     06 12 23.380263 +20 23 29.82775
 2018-Sep-14 08:27     06 12 23.433415 +20 23 29.90020
 2018-Sep-14 08:28     06 12 23.486564 +20 23 29.97266
